[{"OBJECT_NAME":"STARLINK-32430","OBJECT_ID":"2024-229R","EPOCH":"2026-03-09T21:55:31.312704","MEAN_MOTION":15.27605443,"ECCENTRICITY":8.03e-5,"INCLINATION":42.9974,"RA_OF_ASC_NODE":266.1651,"ARG_OF_PERICENTER":311.9352,"MEAN_ANOMALY":48.1431,"EPHEMERIS_TYPE":0,"CLASSIFICATION_TYPE":"U","NORAD_CAT_ID":62207,"ELEMENT_SET_NO":999,"REV_AT_EPOCH":7063,"BSTAR":0.0014626161,"MEAN_MOTION_DOT":0.00040237,"MEAN_MOTION_DDOT":0},{"OBJECT_NAME":"COSMOS 2588","OBJECT_ID":"2025-109A","EPOCH":"2026-03-09T19:28:59.107008","MEAN_MOTION":15.29122656,"ECCENTRICITY":0.0005019,"INCLINATION":72.9704,"RA_OF_ASC_NODE":73.5401,"ARG_OF_PERICENTER":308.678,"MEAN_ANOMALY":51.3966,"EPHEMERIS_TYPE":0,"CLASSIFICATION_TYPE":"U","NORAD_CAT_ID":64095,"ELEMENT_SET_NO":999,"REV_AT_EPOCH":4442,"BSTAR":0.00032611,"MEAN_MOTION_DOT":9.169e-5,"MEAN_MOTION_DDOT":0}]
